{
  "type": "FeatureCollection",
  "features": [
    {
      "type": "Feature",
      "properties": {
        "norad_id": 43648,
        "name": "BEIDOU-3 M15 (C34)",
        "group": "gnss",
        "lat": -54.23246829766826,
        "lon": -146.0516832269752,
        "alt_km": 21537.15738264867,
        "timestamp": "2025-12-06T18:50:10.411372+00:00",
        "meta_object_name": "BEIDOU-3 M15 (C34)",
        "meta_object_id": "2018-078B",
        "meta_epoch": "2025-12-05T07:27:18.667008",
        "meta_mean_motion": 1.86231965,
        "meta_eccentricity": 0.00036856,
        "meta_inclination": 54.2646,
        "meta_ra_of_asc_node": 306.7819,
        "meta_arg_of_pericenter": 17.7509,
        "meta_mean_anomaly": 342.2442,
        "meta_ephemeris_type": 0,
        "meta_classification_type": "U",
        "meta_norad_cat_id": 43648,
        "meta_element_set_no": 999,
        "meta_rev_at_epoch": 4856,
        "meta_bstar": 0,
        "meta_mean_motion_dot": -6.9e-07,
        "meta_mean_motion_ddot": 0,
        "tle_line1": "1 43648U 18078B   25339.31063272 -.00000069  00000+0  00000+0 0  9999",
        "tle_line2": "2 43648  54.2646 306.7819 0003685  17.7509 342.2442  1.86231965 48564"
      },
      "geometry": {
        "type": "Point",
        "coordinates": [
          -146.0516832269752,
          -54.23246829766826
        ]
      }
    },
    {
      "type": "Feature",
      "properties": {
        "norad_id": 43683,
        "name": "BEIDOU-3 G1 (C59)",
        "group": "gnss",
        "lat": 1.50671610506664,
        "lon": 138.37914388591363,
        "alt_km": 35778.76946241635,
        "timestamp": "2025-12-06T18:50:10.411390+00:00",
        "meta_object_name": "BEIDOU-3 G1 (C59)",
        "meta_object_id": "2018-085A",
        "meta_epoch": "2025-12-06T07:29:02.601024",
        "meta_mean_motion": 1.00272704,
        "meta_eccentricity": 0.00018981,
        "meta_inclination": 2.5907,
        "meta_ra_of_asc_node": 103.1424,
        "meta_arg_of_pericenter": 64.9697,
        "meta_mean_anomaly": 159.5619,
        "meta_ephemeris_type": 0,
        "meta_classification_type": "U",
        "meta_norad_cat_id": 43683,
        "meta_element_set_no": 999,
        "meta_rev_at_epoch": 2612,
        "meta_bstar": 0,
        "meta_mean_motion_dot": -2.7e-06,
        "meta_mean_motion_ddot": 0,
        "tle_line1": "1 43683U 18085A   25340.31183566 -.00000270  00000+0  00000+0 0  9991",
        "tle_line2": "2 43683   2.5907 103.1424 0001898  64.9697 159.5619  1.00272704 26121"
      },
      "geometry": {
        "type": "Point",
        "coordinates": [
          138.37914388591363,
          1.50671610506664
        ]
      }
    },
    {
      "type": "Feature",
      "properties": {
        "norad_id": 43687,
        "name": "COSMOS 2529 (757)",
        "group": "gnss",
        "lat": -0.1355565337303362,
        "lon": -160.9716910334084,
        "alt_km": 19135.41381915595,
        "timestamp": "2025-12-06T18:50:10.411407+00:00",
        "meta_object_name": "COSMOS 2529 (757)",
        "meta_object_id": "2018-086A",
        "meta_epoch": "2025-12-03T00:44:36.468960",
        "meta_mean_motion": 2.13101888,
        "meta_eccentricity": 0.00072932,
        "meta_inclination": 64.2917,
        "meta_ra_of_asc_node": 199.2166,
        "meta_arg_of_pericenter": 254.4618,
        "meta_mean_anomaly": 105.5545,
        "meta_ephemeris_type": 0,
        "meta_classification_type": "U",
        "meta_norad_cat_id": 43687,
        "meta_element_set_no": 999,
        "meta_rev_at_epoch": 5510,
        "meta_bstar": 0,
        "meta_mean_motion_dot": 1.06e-06,
        "meta_mean_motion_ddot": 0,
        "tle_line1": "1 43687U 18086A   25337.03097765  .00000106  00000+0  00000+0 0  9993",
        "tle_line2": "2 43687  64.2917 199.2166 0007293 254.4618 105.5545  2.13101888 55102"
      },
      "geometry": {
        "type": "Point",
        "coordinates": [
          -160.9716910334084,
          -0.1355565337303362
        ]
      }
    },
    {
      "type": "Feature",
      "properties": {
        "norad_id": 43706,
        "name": "BEIDOU-3 M17 (C36)",
        "group": "gnss",
        "lat": 14.440712393101224,
        "lon": -1.8920348024341025,
        "alt_km": 21541.03943390794,
        "timestamp": "2025-12-06T18:50:10.411427+00:00",
        "meta_object_name": "BEIDOU-3 M17 (C36)",
        "meta_object_id": "2018-093A",
        "meta_epoch": "2025-12-03T14:10:37.280064",
        "meta_mean_motion": 1.86228161,
        "meta_eccentricity": 0.00063465,
        "meta_inclination": 54.1727,
        "meta_ra_of_asc_node": 188.9327,
        "meta_arg_of_pericenter": 306.3477,
        "meta_mean_anomaly": 234.3147,
        "meta_ephemeris_type": 0,
        "meta_classification_type": "U",
        "meta_norad_cat_id": 43706,
        "meta_element_set_no": 999,
        "meta_rev_at_epoch": 4789,
        "meta_bstar": 0,
        "meta_mean_motion_dot": 1.14e-06,
        "meta_mean_motion_ddot": 0,
        "tle_line1": "1 43706U 18093A   25337.59070926  .00000114  00000+0  00000+0 0  9993",
        "tle_line2": "2 43706  54.1727 188.9327 0006346 306.3477 234.3147  1.86228161 47892"
      },
      "geometry": {
        "type": "Point",
        "coordinates": [
          -1.8920348024341025,
          14.440712393101224
        ]
      }
    },
    {
      "type": "Feature",
      "properties": {
        "norad_id": 43707,
        "name": "BEIDOU-3 M18 (C37)",
        "group": "gnss",
        "lat": -51.51476752083499,
        "lon": 74.18354763649366,
        "alt_km": 21536.155199021014,
        "timestamp": "2025-12-06T18:50:10.411448+00:00",
        "meta_object_name": "BEIDOU-3 M18 (C37)",
        "meta_object_id": "2018-093B",
        "meta_epoch": "2025-12-04T06:09:34.457184",
        "meta_mean_motion": 1.86226429,
        "meta_eccentricity": 0.0006367,
        "meta_inclination": 54.1734,
        "meta_ra_of_asc_node": 188.9019,
        "meta_arg_of_pericenter": 351.3735,
        "meta_mean_anomaly": 8.7081,
        "meta_ephemeris_type": 0,
        "meta_classification_type": "U",
        "meta_norad_cat_id": 43707,
        "meta_element_set_no": 999,
        "meta_rev_at_epoch": 4790,
        "meta_bstar": 0,
        "meta_mean_motion_dot": 1.06e-06,
        "meta_mean_motion_ddot": 0,
        "tle_line1": "1 43707U 18093B   25338.25664881  .00000106  00000+0  00000+0 0  9998",
        "tle_line2": "2 43707  54.1734 188.9019 0006367 351.3735   8.7081  1.86226429 47906"
      },
      "geometry": {
        "type": "Point",
        "coordinates": [
          74.18354763649366,
          -51.51476752083499
        ]
      }
    },
    {
      "type": "Feature",
      "properties": {
        "norad_id": 43873,
        "name": "GPS BIII-1  (PRN 04)",
        "group": "gnss",
        "lat": 13.34023538184182,
        "lon": -89.58076017667051,
        "alt_km": 20096.758496902872,
        "timestamp": "2025-12-06T18:50:10.411483+00:00",
        "meta_object_name": "GPS BIII-1  (PRN 04)",
        "meta_object_id": "2018-109A",
        "meta_epoch": "2025-12-06T07:17:11.236992",
        "meta_mean_motion": 2.00553219,
        "meta_eccentricity": 0.00371759,
        "meta_inclination": 55.5637,
        "meta_ra_of_asc_node": 99.801,
        "meta_arg_of_pericenter": 194.724,
        "meta_mean_anomaly": 341.7092,
        "meta_ephemeris_type": 0,
        "meta_classification_type": "U",
        "meta_norad_cat_id": 43873,
        "meta_element_set_no": 999,
        "meta_rev_at_epoch": 5120,
        "meta_bstar": 0,
        "meta_mean_motion_dot": -5e-08,
        "meta_mean_motion_ddot": 0,
        "tle_line1": "1 43873U 18109A   25340.30360228 -.00000005  00000+0  00000+0 0  9996",
        "tle_line2": "2 43873  55.5637  99.8010 0037175 194.7240 341.7092  2.00553219 51206"
      },
      "geometry": {
        "type": "Point",
        "coordinates": [
          -89.58076017667051,
          13.34023538184182
        ]
      }
    },
    {
      "type": "Feature",
      "properties": {
        "norad_id": 44204,
        "name": "BEIDOU-3 IGSO-1 (C38)",
        "group": "gnss",
        "lat": 54.23957874873841,
        "lon": 98.18584993183778,
        "alt_km": 35885.45874640496,
        "timestamp": "2025-12-06T18:50:10.411505+00:00",
        "meta_object_name": "BEIDOU-3 IGSO-1 (C38)",
        "meta_object_id": "2019-023A",
        "meta_epoch": "2025-11-19T14:15:02.708640",
        "meta_mean_motion": 1.00252177,
        "meta_eccentricity": 0.0026966,
        "meta_inclination": 58.4003,
        "meta_ra_of_asc_node": 39.8168,
        "meta_arg_of_pericenter": 221.2202,
        "meta_mean_anomaly": 126.9723,
        "meta_ephemeris_type": 0,
        "meta_classification_type": "U",
        "meta_norad_cat_id": 44204,
        "meta_element_set_no": 999,
        "meta_rev_at_epoch": 510,
        "meta_bstar": 0,
        "meta_mean_motion_dot": -2.26e-06,
        "meta_mean_motion_ddot": 0,
        "tle_line1": "1 44204U 19023A   25323.59378135 -.00000226  00000+0  00000+0 0  9994",
        "tle_line2": "2 44204  58.4003  39.8168 0026966 221.2202 126.9723  1.00252177  5102"
      },
      "geometry": {
        "type": "Point",
        "coordinates": [
          98.18584993183778,
          54.23957874873841
        ]
      }
    }
  ]
}